STARLINK-37036          
1 68077U 26042J   26072.58334491 -.01495785  63386-3 -45215-2 0  9995
2 68077  53.1594 175.3320 0001050  61.8824  81.1873 15.91552337  2677
STARLINK-36973          
1 68078U 26042K   26072.58334491 -.01494897  63464-3 -44634-2 0  9990
2 68078  53.1595 175.3198 0001055  65.2434  83.7130 15.91790936  2675
STARLINK-37063          
1 68079U 26042L   26072.58334491 -.01491032  63092-3 -44788-2 0  9996
2 68079  53.1590 175.3263 0001190  64.7011  81.0964 15.91673364  2670
STARLINK-37051          
1 68080U 26042M   26072.58334491 -.01484841  62823-3 -43813-2 0  9997
2 68080  53.1592 175.3073 0001047  60.7441  94.1648 15.92017418  2674
STARLINK-37066          
1 68081U 26042N   26072.58334491 -.01494806  63527-3 -44366-2 0  9996
2 68081  53.1598 175.3135 0001242  63.2547  88.7765 15.91905669  2674
STARLINK-37054          
1 68082U 26042P   26072.58334491 -.01489904  63292-3 -43677-2 0  9993
2 68082  53.1593 175.3018 0001325  68.2299  89.3247 15.92143131  2672
STARLINK-37065          
1 68083U 26042Q   26072.58334491 -.01488563  63261-3 -43372-2 0  9992
2 68083  53.1596 175.2960 0001176  64.0193  96.4236 15.92260520  2671
STARLINK-37037          
1 68084U 26042R   26072.58334491 -.01490923  63516-3 -43179-2 0  9994
2 68084  53.1591 175.2896 0001109  60.7256 102.7570 15.92377145  2678
STARLINK-37068          
1 68085U 26042S   26072.58334491 -.01484365  63084-3 -42706-2 0  9993
2 68085  53.1591 175.2847 0001192  63.5514 102.3059 15.92502576  2671
STARLINK-37067          
1 68086U 26042T   26072.58334491 -.01479931  62806-3 -42338-2 0  9999
2 68086  53.1592 175.2781 0001241  64.6196 104.4737 15.92610174  2673
STARLINK-37062          
1 68087U 26042U   26072.58334491 -.01482226  63057-3 -42144-2 0  9995
2 68087  53.1592 175.2721 0001034  61.6354 110.3311 15.92728467  2670
STARLINK-37059          
1 68088U 26042V   26072.58334491 -.01488800  63642-3 -42076-2 0  9994
2 68088  53.1592 175.2656 0001184  61.8052 113.2815 15.92844813  2676
