CCSDS_OMM_VERS = 2.0
CREATION_DATE  = 
ORIGINATOR     = 

OBJECT_NAME    = STARLINK-37036
OBJECT_ID      = 2026-042J
CENTER_NAME    = EARTH
REF_FRAME      = TEME
TIME_SYSTEM    = UTC
MEAN_ELEMENT_THEORY = SGP/SGP4

EPOCH          = 2026-03-13T14:00:01.000224
MEAN_MOTION    = 15.91552337
ECCENTRICITY   = .00010505
INCLINATION    = 53.1594
RA_OF_ASC_NODE = 175.3320
ARG_OF_PERICENTER = 61.8824
MEAN_ANOMALY   = 81.1873

EPHEMERIS_TYPE = 0
CLASSIFICATION_TYPE = U
NORAD_CAT_ID   = 68077
ELEMENT_SET_NO = 999
REV_AT_EPOCH   = 267
BSTAR          = -.45214983E-2
MEAN_MOTION_DOT = -.1495785E-1
MEAN_MOTION_DDOT = .63386066E-3

CCSDS_OMM_VERS = 2.0
CREATION_DATE  = 
ORIGINATOR     = 

OBJECT_NAME    = STARLINK-36973
OBJECT_ID      = 2026-042K
CENTER_NAME    = EARTH
REF_FRAME      = TEME
TIME_SYSTEM    = UTC
MEAN_ELEMENT_THEORY = SGP/SGP4

EPOCH          = 2026-03-13T14:00:01.000224
MEAN_MOTION    = 15.91790936
ECCENTRICITY   = .00010551
INCLINATION    = 53.1595
RA_OF_ASC_NODE = 175.3198
ARG_OF_PERICENTER = 65.2434
MEAN_ANOMALY   = 83.7130

EPHEMERIS_TYPE = 0
CLASSIFICATION_TYPE = U
NORAD_CAT_ID   = 68078
ELEMENT_SET_NO = 999
REV_AT_EPOCH   = 267
BSTAR          = -.44633968E-2
MEAN_MOTION_DOT = -.1494897E-1
MEAN_MOTION_DDOT = .63463521E-3

CCSDS_OMM_VERS = 2.0
CREATION_DATE  = 
ORIGINATOR     = 

OBJECT_NAME    = STARLINK-37063
OBJECT_ID      = 2026-042L
CENTER_NAME    = EARTH
REF_FRAME      = TEME
TIME_SYSTEM    = UTC
MEAN_ELEMENT_THEORY = SGP/SGP4

EPOCH          = 2026-03-13T14:00:01.000224
MEAN_MOTION    = 15.91673364
ECCENTRICITY   = .00011909
INCLINATION    = 53.1590
RA_OF_ASC_NODE = 175.3263
ARG_OF_PERICENTER = 64.7011
MEAN_ANOMALY   = 81.0964

EPHEMERIS_TYPE = 0
CLASSIFICATION_TYPE = U
NORAD_CAT_ID   = 68079
ELEMENT_SET_NO = 999
REV_AT_EPOCH   = 267
BSTAR          = -.44787952E-2
MEAN_MOTION_DOT = -.1491032E-1
MEAN_MOTION_DDOT = .63091923E-3

CCSDS_OMM_VERS = 2.0
CREATION_DATE  = 
ORIGINATOR     = 

OBJECT_NAME    = STARLINK-37051
OBJECT_ID      = 2026-042M
CENTER_NAME    = EARTH
REF_FRAME      = TEME
TIME_SYSTEM    = UTC
MEAN_ELEMENT_THEORY = SGP/SGP4

EPOCH          = 2026-03-13T14:00:01.000224
MEAN_MOTION    = 15.92017418
ECCENTRICITY   = .00010471
INCLINATION    = 53.1592
RA_OF_ASC_NODE = 175.3073
ARG_OF_PERICENTER = 60.7441
MEAN_ANOMALY   = 94.1648

EPHEMERIS_TYPE = 0
CLASSIFICATION_TYPE = U
NORAD_CAT_ID   = 68080
ELEMENT_SET_NO = 999
REV_AT_EPOCH   = 267
BSTAR          = -.43812701E-2
MEAN_MOTION_DOT = -.1484841E-1
MEAN_MOTION_DDOT = .62822882E-3

CCSDS_OMM_VERS = 2.0
CREATION_DATE  = 
ORIGINATOR     = 

OBJECT_NAME    = STARLINK-37066
OBJECT_ID      = 2026-042N
CENTER_NAME    = EARTH
REF_FRAME      = TEME
TIME_SYSTEM    = UTC
MEAN_ELEMENT_THEORY = SGP/SGP4

EPOCH          = 2026-03-13T14:00:01.000224
MEAN_MOTION    = 15.91905669
ECCENTRICITY   = .00012421
INCLINATION    = 53.1598
RA_OF_ASC_NODE = 175.3135
ARG_OF_PERICENTER = 63.2547
MEAN_ANOMALY   = 88.7765

EPHEMERIS_TYPE = 0
CLASSIFICATION_TYPE = U
NORAD_CAT_ID   = 68081
ELEMENT_SET_NO = 999
REV_AT_EPOCH   = 267
BSTAR          = -.44365938E-2
MEAN_MOTION_DOT = -.1494806E-1
MEAN_MOTION_DDOT = .63527146E-3

CCSDS_OMM_VERS = 2.0
CREATION_DATE  = 
ORIGINATOR     = 

OBJECT_NAME    = STARLINK-37054
OBJECT_ID      = 2026-042P
CENTER_NAME    = EARTH
REF_FRAME      = TEME
TIME_SYSTEM    = UTC
MEAN_ELEMENT_THEORY = SGP/SGP4

EPOCH          = 2026-03-13T14:00:01.000224
MEAN_MOTION    = 15.92143131
ECCENTRICITY   = .00013259
INCLINATION    = 53.1593
RA_OF_ASC_NODE = 175.3018
ARG_OF_PERICENTER = 68.2299
MEAN_ANOMALY   = 89.3247

EPHEMERIS_TYPE = 0
CLASSIFICATION_TYPE = U
NORAD_CAT_ID   = 68082
ELEMENT_SET_NO = 999
REV_AT_EPOCH   = 267
BSTAR          = -.43676553E-2
MEAN_MOTION_DOT = -.1489904E-1
MEAN_MOTION_DDOT = .63292454E-3

CCSDS_OMM_VERS = 2.0
CREATION_DATE  = 
ORIGINATOR     = 

OBJECT_NAME    = STARLINK-37065
OBJECT_ID      = 2026-042Q
CENTER_NAME    = EARTH
REF_FRAME      = TEME
TIME_SYSTEM    = UTC
MEAN_ELEMENT_THEORY = SGP/SGP4

EPOCH          = 2026-03-13T14:00:01.000224
MEAN_MOTION    = 15.92260520
ECCENTRICITY   = .00011764
INCLINATION    = 53.1596
RA_OF_ASC_NODE = 175.2960
ARG_OF_PERICENTER = 64.0193
MEAN_ANOMALY   = 96.4236

EPHEMERIS_TYPE = 0
CLASSIFICATION_TYPE = U
NORAD_CAT_ID   = 68083
ELEMENT_SET_NO = 999
REV_AT_EPOCH   = 267
BSTAR          = -.43371974E-2
MEAN_MOTION_DOT = -.1488563E-1
MEAN_MOTION_DDOT = .63260594E-3

CCSDS_OMM_VERS = 2.0
CREATION_DATE  = 
ORIGINATOR     = 

OBJECT_NAME    = STARLINK-37037
OBJECT_ID      = 2026-042R
CENTER_NAME    = EARTH
REF_FRAME      = TEME
TIME_SYSTEM    = UTC
MEAN_ELEMENT_THEORY = SGP/SGP4

EPOCH          = 2026-03-13T14:00:01.000224
MEAN_MOTION    = 15.92377145
ECCENTRICITY   = .00011095
INCLINATION    = 53.1591
RA_OF_ASC_NODE = 175.2896
ARG_OF_PERICENTER = 60.7256
MEAN_ANOMALY   = 102.7570

EPHEMERIS_TYPE = 0
CLASSIFICATION_TYPE = U
NORAD_CAT_ID   = 68084
ELEMENT_SET_NO = 999
REV_AT_EPOCH   = 267
BSTAR          = -.43178882E-2
MEAN_MOTION_DOT = -.1490923E-1
MEAN_MOTION_DDOT = .63516347E-3

CCSDS_OMM_VERS = 2.0
CREATION_DATE  = 
ORIGINATOR     = 

OBJECT_NAME    = STARLINK-37068
OBJECT_ID      = 2026-042S
CENTER_NAME    = EARTH
REF_FRAME      = TEME
TIME_SYSTEM    = UTC
MEAN_ELEMENT_THEORY = SGP/SGP4

EPOCH          = 2026-03-13T14:00:01.000224
MEAN_MOTION    = 15.92502576
ECCENTRICITY   = .00011923
INCLINATION    = 53.1591
RA_OF_ASC_NODE = 175.2847
ARG_OF_PERICENTER = 63.5514
MEAN_ANOMALY   = 102.3059

EPHEMERIS_TYPE = 0
CLASSIFICATION_TYPE = U
NORAD_CAT_ID   = 68085
ELEMENT_SET_NO = 999
REV_AT_EPOCH   = 267
BSTAR          = -.42705924E-2
MEAN_MOTION_DOT = -.1484365E-1
MEAN_MOTION_DDOT = .63083579E-3

CCSDS_OMM_VERS = 2.0
CREATION_DATE  = 
ORIGINATOR     = 

OBJECT_NAME    = STARLINK-37067
OBJECT_ID      = 2026-042T
CENTER_NAME    = EARTH
REF_FRAME      = TEME
TIME_SYSTEM    = UTC
MEAN_ELEMENT_THEORY = SGP/SGP4

EPOCH          = 2026-03-13T14:00:01.000224
MEAN_MOTION    = 15.92610174
ECCENTRICITY   = .00012418
INCLINATION    = 53.1592
RA_OF_ASC_NODE = 175.2781
ARG_OF_PERICENTER = 64.6196
MEAN_ANOMALY   = 104.4737

EPHEMERIS_TYPE = 0
CLASSIFICATION_TYPE = U
NORAD_CAT_ID   = 68086
ELEMENT_SET_NO = 999
REV_AT_EPOCH   = 267
BSTAR          = -.42337976E-2
MEAN_MOTION_DOT = -.1479931E-1
MEAN_MOTION_DDOT = .62805522E-3

CCSDS_OMM_VERS = 2.0
CREATION_DATE  = 
ORIGINATOR     = 

OBJECT_NAME    = STARLINK-37062
OBJECT_ID      = 2026-042U
CENTER_NAME    = EARTH
REF_FRAME      = TEME
TIME_SYSTEM    = UTC
MEAN_ELEMENT_THEORY = SGP/SGP4

EPOCH          = 2026-03-13T14:00:01.000224
MEAN_MOTION    = 15.92728467
ECCENTRICITY   = .00010348
INCLINATION    = 53.1592
RA_OF_ASC_NODE = 175.2721
ARG_OF_PERICENTER = 61.6354
MEAN_ANOMALY   = 110.3311

EPHEMERIS_TYPE = 0
CLASSIFICATION_TYPE = U
NORAD_CAT_ID   = 68087
ELEMENT_SET_NO = 999
REV_AT_EPOCH   = 267
BSTAR          = -.42143964E-2
MEAN_MOTION_DOT = -.1482226E-1
MEAN_MOTION_DDOT = .63056758E-3

CCSDS_OMM_VERS = 2.0
CREATION_DATE  = 
ORIGINATOR     = 

OBJECT_NAME    = STARLINK-37059
OBJECT_ID      = 2026-042V
CENTER_NAME    = EARTH
REF_FRAME      = TEME
TIME_SYSTEM    = UTC
MEAN_ELEMENT_THEORY = SGP/SGP4

EPOCH          = 2026-03-13T14:00:01.000224
MEAN_MOTION    = 15.92844813
ECCENTRICITY   = .00011847
INCLINATION    = 53.1592
RA_OF_ASC_NODE = 175.2656
ARG_OF_PERICENTER = 61.8052
MEAN_ANOMALY   = 113.2815

EPHEMERIS_TYPE = 0
CLASSIFICATION_TYPE = U
NORAD_CAT_ID   = 68088
ELEMENT_SET_NO = 999
REV_AT_EPOCH   = 267
BSTAR          = -.42075537E-2
MEAN_MOTION_DOT = -.14888E-1
MEAN_MOTION_DDOT = .63641895E-3

